start=new Date('2023-01-22T00:00:00.000Z').valueOf();
sats=[{"CLASSIFICATION_TYPE":"U","OBJECT_ID":"2021-040H","MEAN_ANOMALY":"264.4322","TLE_LINE2":"2 48435  53.0498 257.8136 0001387  95.6825 264.4322 15.06407910 95832","SEMIMAJOR_AXIS":"6925.324","FILE":"3757215","ECCENTRICITY":"0.00013870","COUNTRY_CODE":"US","GP_ID":"223579157","EPHEMERIS_TYPE":"0","CENTER_NAME":"EARTH","MEAN_ELEMENT_THEORY":"SGP4","LAUNCH_DATE":"2021-05-09","REF_FRAME":"TEME","APOAPSIS":"548.150","OBJECT_TYPE":"PAYLOAD","PERIOD":"95.592","ARG_OF_PERICENTER":"95.6825","ELEMENT_SET_NO":"999","NORAD_CAT_ID":"48435","REV_AT_EPOCH":"9583","SITE":"AFETR","EPOCH":"2023-01-21T16:17:10.942368","TLE_LINE1":"1 48435U 21040H   23021.67859887  .00001689  00000-0  13220-3 0  9992","DECAY_DATE":null,"MEAN_MOTION_DOT":"0.00001689","RCS_SIZE":"LARGE","INCLINATION":"53.0498","BSTAR":"0.00013220000000","MEAN_MOTION":"15.06407910","OBJECT_NAME":"STARLINK-2633","MEAN_MOTION_DDOT":"0.0000000000000","PERIAPSIS":"546.229","TIME_SYSTEM":"UTC","RA_OF_ASC_NODE":"257.8136"},{"PERIOD":"95.592","ARG_OF_PERICENTER":"91.9639","ELEMENT_SET_NO":"999","NORAD_CAT_ID":"48436","REV_AT_EPOCH":"9471","SITE":"AFETR","EPOCH":"2023-01-21T03:17:36.494016","TLE_LINE1":"1 48436U 21040J   23021.13722794  .00005000  00000-0  35431-3 0  9999","DECAY_DATE":null,"MEAN_MOTION_DOT":"0.00005000","RCS_SIZE":"LARGE","INCLINATION":"53.0530","BSTAR":"0.00035431000000","MEAN_MOTION":"15.06401264","OBJECT_NAME":"STARLINK-2639","MEAN_MOTION_DDOT":"0.0000000000000","PERIAPSIS":"546.296","TIME_SYSTEM":"UTC","RA_OF_ASC_NODE":"275.2327","CLASSIFICATION_TYPE":"U","OBJECT_ID":"2021-040J","MEAN_ANOMALY":"268.1501","TLE_LINE2":"2 48436  53.0530 275.2327 0001320  91.9639 268.1501 15.06401264 94717","SEMIMAJOR_AXIS":"6925.345","FILE":"3756665","ECCENTRICITY":"0.00013200","COUNTRY_CODE":"US","GP_ID":"223566243","CENTER_NAME":"EARTH","EPHEMERIS_TYPE":"0","MEAN_ELEMENT_THEORY":"SGP4","LAUNCH_DATE":"2021-05-09","REF_FRAME":"TEME","APOAPSIS":"548.124","OBJECT_TYPE":"PAYLOAD"},{"SEMIMAJOR_AXIS":"6925.327","OBJECT_ID":"2021-040K","MEAN_ANOMALY":"266.7391","TLE_LINE2":"2 48437  53.0509 283.8164 0001707  93.3793 266.7391 15.06407031 95455","CLASSIFICATION_TYPE":"U","ECCENTRICITY":"0.00017070","FILE":"3756989","GP_ID":"223573113","COUNTRY_CODE":"US","OBJECT_TYPE":"PAYLOAD","LAUNCH_DATE":"2021-05-09","REF_FRAME":"TEME","APOAPSIS":"548.374","CENTER_NAME":"EARTH","EPHEMERIS_TYPE":"0","MEAN_ELEMENT_THEORY":"SGP4","NORAD_CAT_ID":"48437","ELEMENT_SET_NO":"999","ARG_OF_PERICENTER":"93.3793","PERIOD":"95.592","EPOCH":"2023-01-21T10:52:45.063840","REV_AT_EPOCH":"9545","SITE":"AFETR","RCS_SIZE":"LARGE","INCLINATION":"53.0509","DECAY_DATE":null,"MEAN_MOTION_DOT":"0.00011012","TLE_LINE1":"1 48437U 21040K   23021.45329935  .00011012  00000-0  75684-3 0  9999","PERIAPSIS":"546.010","RA_OF_ASC_NODE":"283.8164","TIME_SYSTEM":"UTC","OBJECT_NAME":"STARLINK-2642","MEAN_MOTION_DDOT":"0.0000000000000","BSTAR":"0.00075684000000","MEAN_MOTION":"15.06407031"},{"TLE_LINE1":"1 48438U 21040L   23020.40372734  .00008770  00000-0  60697-3 0  9994","INCLINATION":"53.0534","RCS_SIZE":"LARGE","MEAN_MOTION_DOT":"0.00008770","DECAY_DATE":null,"BSTAR":"0.00060697000000","MEAN_MOTION":"15.06396518","RA_OF_ASC_NODE":"278.5170","TIME_SYSTEM":"UTC","PERIAPSIS":"546.377","MEAN_MOTION_DDOT":"0.0000000000000","OBJECT_NAME":"STARLINK-2640","ARG_OF_PERICENTER":"85.9317","PERIOD":"95.592","ELEMENT_SET_NO":"999","NORAD_CAT_ID":"48438","EPOCH":"2023-01-20T09:41:22.042176","SITE":"AFETR","REV_AT_EPOCH":"9415","COUNTRY_CODE":"US","GP_ID":"223546011","APOAPSIS":"548.071","LAUNCH_DATE":"2021-05-09","REF_FRAME":"TEME","MEAN_ELEMENT_THEORY":"SGP4","CENTER_NAME":"EARTH","EPHEMERIS_TYPE":"0","OBJECT_TYPE":"PAYLOAD","CLASSIFICATION_TYPE":"U","SEMIMAJOR_AXIS":"6925.359","TLE_LINE2":"2 48438  53.0534 278.5170 0001223  85.9317 274.1811 15.06396518 94157","OBJECT_ID":"2021-040L","MEAN_ANOMALY":"274.1811","FILE":"3755973","ECCENTRICITY":"0.00012230"},{"COUNTRY_CODE":"US","GP_ID":"223573586","OBJECT_TYPE":"PAYLOAD","APOAPSIS":"548.209","LAUNCH_DATE":"2021-05-09","REF_FRAME":"TEME","MEAN_ELEMENT_THEORY":"SGP4","CENTER_NAME":"EARTH","EPHEMERIS_TYPE":"0","SEMIMAJOR_AXIS":"6925.331","TLE_LINE2":"2 48439  53.0540 274.0614 0001464 100.7916 259.3238 15.06405879 95584","MEAN_ANOMALY":"259.3238","OBJECT_ID":"2021-040M","CLASSIFICATION_TYPE":"U","ECCENTRICITY":"0.00014640","FILE":"3756989","INCLINATION":"53.0540","RCS_SIZE":"LARGE","MEAN_MOTION_DOT":"0.00003002","DECAY_DATE":null,"TLE_LINE1":"1 48439U 21040M   23021.39524293  .00003002  00000-0  22034-3 0  9999","TIME_SYSTEM":"UTC","RA_OF_ASC_NODE":"274.0614","PERIAPSIS":"546.182","MEAN_MOTION_DDOT":"0.0000000000000","OBJECT_NAME":"STARLINK-2583","BSTAR":"0.00022034000000","MEAN_MOTION":"15.06405879","ELEMENT_SET_NO":"999","NORAD_CAT_ID":"48439","ARG_OF_PERICENTER":"100.7916","PERIOD":"95.592","EPOCH":"2023-01-21T09:29:08.989152","SITE":"AFETR","REV_AT_EPOCH":"9558"},{"ECCENTRICITY":"0.00012870","FILE":"3756293","TLE_LINE2":"2 48440  53.0532 275.2675 0001287 111.9879 248.1246 15.06405552 94719","OBJECT_ID":"2021-040N","MEAN_ANOMALY":"248.1246","SEMIMAJOR_AXIS":"6925.332","CLASSIFICATION_TYPE":"U","OBJECT_TYPE":"PAYLOAD","MEAN_ELEMENT_THEORY":"SGP4","CENTER_NAME":"EARTH","EPHEMERIS_TYPE":"0","APOAPSIS":"548.088","REF_FRAME":"TEME","LAUNCH_DATE":"2021-05-09","GP_ID":"223557319","COUNTRY_CODE":"US","SITE":"AFETR","REV_AT_EPOCH":"9471","EPOCH":"2023-01-21T03:01:41.118240","ELEMENT_SET_NO":"999","NORAD_CAT_ID":"48440","PERIOD":"95.592","ARG_OF_PERICENTER":"111.9879","MEAN_MOTION_DDOT":"0.0000000000000","OBJECT_NAME":"STARLINK-2682","RA_OF_ASC_NODE":"275.2675","TIME_SYSTEM":"UTC","PERIAPSIS":"546.305","BSTAR":"0.00102110000000","MEAN_MOTION":"15.06405552","MEAN_MOTION_DOT":"0.00014963","DECAY_DATE":null,"INCLINATION":"53.0532","RCS_SIZE":"LARGE","TLE_LINE1":"1 48440U 21040N   23021.12617035  .00014963  00000-0  10211-2 0  9990"},{"ELEMENT_SET_NO":"999","NORAD_CAT_ID":"48441","PERIOD":"95.591","ARG_OF_PERICENTER":"91.4099","REV_AT_EPOCH":"9563","SITE":"AFETR","EPOCH":"2023-01-21T17:16:13.656000","DECAY_DATE":null,"MEAN_MOTION_DOT":"0.00006122","RCS_SIZE":"LARGE","INCLINATION":"53.0535","TLE_LINE1":"1 48441U 21040P   23021.71960250  .00006122  00000-0  42937-3 0  9995","OBJECT_NAME":"STARLINK-2702","MEAN_MOTION_DDOT":"0.0000000000000","PERIAPSIS":"546.376","RA_OF_ASC_NODE":"272.6053","TIME_SYSTEM":"UTC","BSTAR":"0.00042937000000","MEAN_MOTION":"15.06412165","MEAN_ANOMALY":"268.7022","OBJECT_ID":"2021-040P","TLE_LINE2":"2 48441  53.0535 272.6053 0001156  91.4099 268.7022 15.06412165 95635","SEMIMAJOR_AXIS":"6925.311","CLASSIFICATION_TYPE":"U","ECCENTRICITY":"0.00011560","FILE":"3757213","COUNTRY_CODE":"US","GP_ID":"223579291","OBJECT_TYPE":"PAYLOAD","CENTER_NAME":"EARTH","EPHEMERIS_TYPE":"0","MEAN_ELEMENT_THEORY":"SGP4","REF_FRAME":"TEME","LAUNCH_DATE":"2021-05-09","APOAPSIS":"547.977"},{"PERIOD":"95.592","ARG_OF_PERICENTER":"104.2343","ELEMENT_SET_NO":"999","NORAD_CAT_ID":"48442","REV_AT_EPOCH":"9563","SITE":"AFETR","EPOCH":"2023-01-21T17:10:55.282368","TLE_LINE1":"1 48442U 21040Q   23021.71591762  .00009354  00000-0  64593-3 0  9996","DECAY_DATE":null,"MEAN_MOTION_DOT":"0.00009354","RCS_SIZE":"LARGE","INCLINATION":"53.0504","BSTAR":"0.00064593000000","MEAN_MOTION":"15.06406813","OBJECT_NAME":"STARLINK-2644","MEAN_MOTION_DDOT":"0.0000000000000","PERIAPSIS":"546.202","RA_OF_ASC_NODE":"272.6328","TIME_SYSTEM":"UTC","CLASSIFICATION_TYPE":"U","MEAN_ANOMALY":"255.8805","OBJECT_ID":"2021-040Q","TLE_LINE2":"2 48442  53.0504 272.6328 0001430 104.2343 255.8805 15.06406813 95636","SEMIMAJOR_AXIS":"6925.328","FILE":"3757213","ECCENTRICITY":"0.00014300","COUNTRY_CODE":"US","GP_ID":"223579301","CENTER_NAME":"EARTH","EPHEMERIS_TYPE":"0","MEAN_ELEMENT_THEORY":"SGP4","REF_FRAME":"TEME","LAUNCH_DATE":"2021-05-09","APOAPSIS":"548.183","OBJECT_TYPE":"PAYLOAD"},{"TLE_LINE1":"1 48443U 21040R   23021.71223562  .00006884  00000-0  48052-3 0  9994","INCLINATION":"53.0528","RCS_SIZE":"LARGE","MEAN_MOTION_DOT":"0.00006884","DECAY_DATE":null,"BSTAR":"0.00048052000000","MEAN_MOTION":"15.06406387","TIME_SYSTEM":"UTC","RA_OF_ASC_NODE":"272.6479","PERIAPSIS":"546.114","MEAN_MOTION_DDOT":"0.0000000000000","OBJECT_NAME":"STARLINK-2663","ARG_OF_PERICENTER":"81.6171","PERIOD":"95.592","ELEMENT_SET_NO":"999","NORAD_CAT_ID":"48443","EPOCH":"2023-01-21T17:05:37.157568","SITE":"AFETR","REV_AT_EPOCH":"9563","COUNTRY_CODE":"US","GP_ID":"223579169","APOAPSIS":"548.274","LAUNCH_DATE":"2021-05-09","REF_FRAME":"TEME","MEAN_ELEMENT_THEORY":"SGP4","CENTER_NAME":"EARTH","EPHEMERIS_TYPE":"0","OBJECT_TYPE":"PAYLOAD","CLASSIFICATION_TYPE":"U","SEMIMAJOR_AXIS":"6925.329","TLE_LINE2":"2 48443  53.0528 272.6479 0001559  81.6171 278.4995 15.06406387 95636","OBJECT_ID":"2021-040R","MEAN_ANOMALY":"278.4995","FILE":"3757213","ECCENTRICITY":"0.00015590"},{"MEAN_MOTION_DDOT":"0.0000000000000","OBJECT_NAME":"STARLINK-2645","RA_OF_ASC_NODE":"275.3439","TIME_SYSTEM":"UTC","PERIAPSIS":"546.234","BSTAR":"0.00037327000000","MEAN_MOTION":"15.06404463","MEAN_MOTION_DOT":"0.00005283","DECAY_DATE":null,"INCLINATION":"53.0515","RCS_SIZE":"LARGE","TLE_LINE1":"1 48444U 21040S   23021.11142328  .00005283  00000-0  37327-3 0  9994","SITE":"AFETR","REV_AT_EPOCH":"9554","EPOCH":"2023-01-21T02:40:26.971392","NORAD_CAT_ID":"48444","ELEMENT_SET_NO":"999","PERIOD":"95.592","ARG_OF_PERICENTER":"100.3088","OBJECT_TYPE":"PAYLOAD","MEAN_ELEMENT_THEORY":"SGP4","CENTER_NAME":"EARTH","EPHEMERIS_TYPE":"0","APOAPSIS":"548.166","REF_FRAME":"TEME","LAUNCH_DATE":"2021-05-09","GP_ID":"223566476","COUNTRY_CODE":"US","ECCENTRICITY":"0.00013950","FILE":"3756672","TLE_LINE2":"2 48444  53.0515 275.3439 0001395 100.3088 259.8058 15.06404463 95549","OBJECT_ID":"2021-040S","MEAN_ANOMALY":"259.8058","SEMIMAJOR_AXIS":"6925.335","CLASSIFICATION_TYPE":"U"}];
